[{"OBJECT_NAME":"ORBCOMM FM118","OBJECT_ID":"2015-081E","EPOCH":"2026-03-09T11:40:57.402336","MEAN_MOTION":14.58732197,"ECCENTRICITY":0.00039245,"INCLINATION":47.0034,"RA_OF_ASC_NODE":113.1194,"ARG_OF_PERICENTER":286.8765,"MEAN_ANOMALY":73.169,"EPHEMERIS_TYPE":0,"CLASSIFICATION_TYPE":"U","NORAD_CAT_ID":41183,"ELEMENT_SET_NO":999,"REV_AT_EPOCH":54317,"BSTAR":0.00026393443,"MEAN_MOTION_DOT":1.073e-5,"MEAN_MOTION_DDOT":0},{"OBJECT_NAME":"FENGYUN 1C DEB","OBJECT_ID":"1999-025AWT","EPOCH":"2026-03-09T23:02:35.505888","MEAN_MOTION":14.55027046,"ECCENTRICITY":0.00407623,"INCLINATION":98.9723,"RA_OF_ASC_NODE":69.8216,"ARG_OF_PERICENTER":33.7101,"MEAN_ANOMALY":326.6674,"EPHEMERIS_TYPE":0,"CLASSIFICATION_TYPE":"U","NORAD_CAT_ID":30857,"ELEMENT_SET_NO":999,"REV_AT_EPOCH":97990,"BSTAR":0.0048138833,"MEAN_MOTION_DOT":0.00020984,"MEAN_MOTION_DDOT":0}]
